{"version": 0.6, "generator": "Overpass API 0.7.62.5 1bd436f1", "osm3s": {"timestamp_osm_base": "2025-05-29T12:06:45Z", "copyright": "The data included in this document is from www.openstreetmap.org. The data is made available under ODbL."}, "elements": [{"type": "node", "id": 268056325, "lat": 47.8029492, "lon": 13.0464463, "tags": {"addr:city": "Salzburg", "addr:country": "AT", "addr:housenumber": "26", "addr:postcode": "5020", "addr:street": "Linzer Gasse", "amenity": "cafe", "at_bev:addr_date": "2023-10-01", "diet:vegan": "yes", "diet:vegetarian": "yes", "indoor_seating": "yes", "level": "0", "name": "Cafe Habakuk", "opening_hours": "Mo-Th 07:00-19:00; Fr 07:00-20:00; Sa 07:00-18:00", "outdoor_seating": "yes", "owner": "Fam. Vonblon", "wheelchair": "no"}}, {"type": "node", "id": 268243632, "lat": 47.8026888, "lon": 13.0438732, "tags": {"addr:city": "Salzburg", "addr:housenumber": "8", "addr:postcode": "5020", "addr:street": "Makartplatz", "amenity": "cafe", "diet:vegetarian": "yes", "indoor_seating": "yes", "name": "Cafe Classic", "opening_hours": "Mo-Sa 08:00-19:30", "outdoor_seating": "yes", "wheelchair": "no"}}, {"type": "node", "id": 268243640, "lat": 47.8018642, "lon": 13.0438317, "tags": {"addr:city": "Salzburg", "addr:housenumber": "3", "addr:postcode": "5020", "addr:street": "Schwarzstra\u00dfe", "amenity": "cafe", "check_date:opening_hours": "2023-07-22", "cuisine": "regional;coffee_shop", "email": "info@cafe-bazar.at", "internet_access": "wlan", "name": "Cafe Bazar", "opening_hours": "Mo-Sa 07:30-19:30; Su 09:00-18:00", "payment:credit_cards": "no", "phone": "+43 662 874278", "toilets:wheelchair": "yes", "website": "https://www.cafe-bazar.at/", "wheelchair": "limited", "wikidata": "Q1025574", "wikipedia": "de:Caf\u00e9 Bazar (Salzburg)"}}, {"type": "node", "id": 268243668, "lat": 47.7982223, "lon": 13.043139, "tags": {"amenity": "cafe", "check_date": "2023-03-18", "cuisine": "cake", "name": "220GRAD", "opening_hours": "Tu,Th-Su 09:00-18:00; We 09:00-20:00", "outdoor_seating": "yes", "payment:credit_cards": "yes", "website": "https://www.220grad.com/", "wheelchair": "yes"}}, {"type": "node", "id": 268243701, "lat": 47.7988743, "lon": 13.0450495, "tags": {"amenity": "cafe", "check_date": "2023-06-29", "name": "Kiosk Cafe Tomaselli", "wheelchair": "no"}}, {"type": "node", "id": 268243703, "lat": 47.7991204, "lon": 13.0455572, "tags": {"addr:city": "Salzburg", "addr:country": "AT", "addr:housenumber": "13", "addr:postcode": "5020", "addr:street": "Brodgasse", "amenity": "cafe", "check_date": "2025-04-18", "contact:phone": "+43 662 843 759-0", "cuisine": "cake", "email": "konditorei@fuerst.cc", "indoor_seating": "yes", "name": "Cafe Konditorei F\u00fcrst Brodgasse", "name:ru": "\u041a\u0430\u0444\u0435 \u0424\u0435\u0440\u0441\u0442", "not:name": "Confiserie Konditorei F\u00fcrst", "opening_hours": "Mo-Sa 09:00-19:00; Su,PH 10:00-17:00", "operator": "Caf\u00e9 Konditorei F\u00fcrst GmbH", "outdoor_seating": "yes", "phone": "+43 662 881077", "smoking": "no", "takeaway": "yes", "toilets": "yes", "website": "https://original-mozartkugel.com/", "wheelchair": "limited", "wheelchair:description": "Eingang links \u00fcber Lieferzugang, dort kleine Schwelle"}}, {"type": "node", "id": 317987180, "lat": 47.799627, "lon": 13.0435715, "tags": {"amenity": "cafe", "check_date": "2023-08-22", "name": "Caf\u00e9 in Mozarts Geburtshaus"}}, {"type": "node", "id": 321978329, "lat": 47.7620119, "lon": 13.0604448}, {"type": "node", "id": 479370934, "lat": 47.7731725, "lon": 13.0709627, "tags": {"amenity": "cafe", "name": "Limiti"}}, {"type": "node", "id": 551204650, "lat": 47.8072444, "lon": 13.0431176, "tags": {"addr:city": "Salzburg", "addr:country": "AT", "addr:housenumber": "5", "addr:postcode": "5020", "addr:street": "Franz-Josef-Stra\u00dfe", "amenity": "cafe", "contact:phone": "+43 676 644 78 93", "contact:website": "https://www.lazarte.at/cafewernbacher", "cuisine": "peruvian;regional;latin_american", "diet:vegetarian": "yes", "indoor_seating": "yes", "name": "Lazarte im Caf\u00e9 Wernbacher", "opening_hours": "Mo,Tu,Th-Su 08:00-22:00; We off", "outdoor_seating": "yes", "wheelchair": "no", "wheelchair:description": "Klassisches Kaffeehaus. Im Sommer kann man drau\u00dfen sitzen, barrierefrei nur drau\u00dfen. Toilette im Mirabellgarten, 100m entfernt."}}, {"type": "node", "id": 565595509, "lat": 47.8073839, "lon": 13.0436099, "tags": {"addr:city": "Salzburg", "addr:country": "AT", "addr:housenumber": "9", "addr:postcode": "5020", "addr:street": "Franz-Josef-Stra\u00dfe", "amenity": "cafe", "diet:vegetarian": "yes", "indoor_seating": "yes", "name": "Caf\u00e9 Fingerlos", "opening_hours": "Tu-Su 07:30-19:30; Mo off", "outdoor_seating": "yes", "payment:credit_cards": "yes", "payment:debit_cards": "yes", "smoking": "outside", "wheelchair": "yes"}}, {"type": "node", "id": 572229594, "lat": 47.7969396, "lon": 13.0548525, "tags": {"amenity": "cafe", "check_date": "2023-07-03", "diet:vegan": "yes", "diet:vegetarian": "only", "indoor_seating": "yes", "name": "Tula Bistro", "opening_hours": "Mo-Fr 11:00-21:00", "outdoor_seating": "yes", "phone": "+43 660 9877011", "website": "https://www.tula-bistro.at/"}}, {"type": "node", "id": 599716651, "lat": 47.8083356, "lon": 13.0026744, "tags": {"amenity": "cafe", "name": "Graf Zeppelin"}}, {"type": "node", "id": 694208087, "lat": 47.8041112, "lon": 13.0477565, "tags": {"addr:city": "Salzburg", "addr:country": "AT", "addr:housenumber": "43", "addr:postcode": "5020", "addr:street": "Linzer Gasse", "amenity": "cafe", "name": "coffee & soul", "opening_hours": "Mo-Fr 07:00+; Sa 09:00+"}}, {"type": "node", "id": 790626345, "lat": 47.7998406, "lon": 13.0425313}, {"type": "node", "id": 790627443, "lat": 47.7998378, "lon": 13.0424774}, {"type": "node", "id": 790712448, "lat": 47.77645, "lon": 13.0674311, "tags": {"amenity": "cafe", "check_date": "2023-08-22", "name": "Cafe Sporthalle Alpenstra\u00dfe"}}, {"type": "node", "id": 814217464, "lat": 47.8000821, "lon": 13.0426305, "tags": {"addr:city": "Salzburg", "addr:country": "AT", "addr:housenumber": "22", "addr:postcode": "5020", "addr:street": "Getreidegasse", "amenity": "cafe", "check_date:opening_hours": "2024-02-02", "contact:email": "info@cafemozartsalzburg.at", "cuisine": "coffee_shop", "indoor_seating": "yes", "internet_access": "wlan", "name": "Caf\u00e9 Mozart", "opening_hours": "Mo-Sa 08:00-21:00; Su 09:00-21:00", "outdoor_seating": "no", "phone": "+43662843958", "toilets:wheelchair": "no", "website": "https://www.cafemozartsalzburg.at/", "wheelchair": "yes", "wikidata": "Q1025644"}}, {"type": "node", "id": 814235255, "lat": 47.8005932, "lon": 13.0431902, "tags": {"addr:city": "Salzburg", "addr:country": "AT", "addr:housenumber": "13", "addr:postcode": "5020", "addr:street": "Griesgasse", "amenity": "cafe", "indoor_seating": "yes", "layer": "1", "name": "Cafe W\u00fcrfelzucker", "opening_hours": "We-Su 08:30-21:00", "outdoor_seating": "no", "wheelchair": "no"}}, {"type": "node", "id": 814235470, "lat": 47.8003541, "lon": 13.0397096, "tags": {"addr:city": "Salzburg", "addr:housenumber": "5", "addr:postcode": "5020", "addr:street": "B\u00fcrgerspitalplatz", "amenity": "cafe", "cuisine": "african;breakfast;burger", "diet:vegetarian": "yes", "email": "cafe.salzburg@afrocoffee.com", "indoor_seating": "yes", "internet_access": "wlan", "internet_access:access": "customers", "internet_access:fee": "no", "name": "Afro Cafe", "opening_hours": "Mo-Sa 09:00-20:00", "outdoor_seating": "yes", "phone": "+43 662 844888", "website": "https://afrocoffee.com/", "website:menu": "https://afrocoffee.com/afro-cafe-salzburg/", "wheelchair": "no"}}, {"type": "node", "id": 814276649, "lat": 47.8004793, "lon": 13.0429888, "tags": {"addr:city": "Salzburg", "addr:country": "AT", "addr:housenumber": "15", "addr:postcode": "5020", "addr:street": "Griesgasse", "amenity": "cafe", "name": "Kramer's", "wheelchair": "yes"}}, {"type": "node", "id": 824249751, "lat": 47.8032841, "lon": 13.0442477, "tags": {"addr:housenumber": "5", "addr:postcode": "5020", "addr:street": "Makartplatz", "amenity": "cafe", "check_date": "2024-07-26", "cuisine": "ice_cream", "diet:vegetarian": "yes", "email": "cafe@cafesanmarco.at", "indoor_seating": "yes", "name": "San Marco", "opening_hours": "Tu-Sa 08:00-00:00", "outdoor_seating": "yes", "phone": "+43 662 872088", "website": "https://cafesanmarco.at/", "website:menu": "https://cafesanmarco.at/food-drinks/", "wheelchair": "no"}}, {"type": "node", "id": 824324268, "lat": 47.8030436, "lon": 13.0465739, "tags": {"addr:city": "Salzburg", "addr:housenumber": "28", "addr:postcode": "5020", "addr:street": "Linzer Gasse", "amenity": "cafe", "check_date": "2023-07-19", "cuisine": "coffee_shop;cake", "indoor_seating": "yes", "internet_access": "wlan", "internet_access:fee": "customers", "name": "My Mom's", "opening_hours": "09:00-18:00; PH 10:00-17:00", "outdoor_seating": "no", "payment:mastercard": "yes", "payment:visa": "yes", "wheelchair": "no"}}, {"type": "node", "id": 826009801, "lat": 47.8053355, "lon": 13.0434799, "tags": {"addr:housenumber": "5", "addr:street": "Mirabellplatz", "amenity": "cafe", "diet:vegetarian": "yes", "indoor_seating": "yes", "name": "Caf\u00e9 Konditorei F\u00fcrst Mirabellplatz", "opening_hours": "Mo-We, Fr 09:00-19:00; Th 08:00-19:00; Sa 09:00-18:00", "outdoor_seating": "yes", "phone": "+43-662-881077", "shop": "confectionery", "website": "https://www.original-mozartkugel.com/en/standorte/cafe_fuerst_mirabellplatz.php", "wheelchair": "no"}}, {"type": "node", "id": 827211872, "lat": 47.8034633, "lon": 13.0469531, "tags": {"addr:city": "Salzburg", "addr:country": "AT", "addr:housenumber": "33", "addr:postcode": "5020", "addr:street": "Linzer Gasse", "amenity": "cafe", "at_bev:addr_date": "2023-04-15", "contact:email": "office@favoritekamer.com", "contact:phone": "+43 664 1250743", "name": "Favorite Kamer", "operator": "Julia Hoff"}}, {"type": "node", "id": 827246963, "lat": 47.8038317, "lon": 13.0448047, "tags": {"amenity": "cafe", "brand": "Costa", "brand:wikidata": "Q608845", "brand:wikipedia": "en:Costa Coffee", "cuisine": "coffee_shop", "name": "Costa", "opening_hours": "Mo-Su 10:00-21:00", "takeaway": "yes", "wheelchair": "no"}}, {"type": "node", "id": 827323877, "lat": 47.801989, "lon": 13.043585, "tags": {"addr:city": "Salzburg", "addr:country": "AT", "addr:housenumber": "5-7", "addr:postcode": "5020", "addr:street": "Schwarzstra\u00dfe", "amenity": "cafe", "check_date": "2024-02-05", "name": "Caf\u00e9 Sacher - Salzachgrill", "opening_hours": "Mo-Su 08:00-20:00", "wheelchair": "limited"}}, {"type": "node", "id": 914484527, "lat": 47.8131822, "lon": 13.0197948, "tags": {"amenity": "cafe", "name": "Cafe Aulitzky", "wheelchair": "yes"}}, {"type": "node", "id": 1110318918, "lat": 47.7620257, "lon": 13.0604838}, {"type": "node", "id": 1210297752, "lat": 47.8183435, "lon": 13.0203601}, {"type": "node", "id": 1210297753, "lat": 47.8183178, "lon": 13.0202978}, {"type": "node", "id": 1210297756, "lat": 47.818258, "lon": 13.0204386}, {"type": "node", "id": 1210297757, "lat": 47.8183374, "lon": 13.0202797}, {"type": "node", "id": 1210297758, "lat": 47.8183133, "lon": 13.0202214}, {"type": "node", "id": 1210297760, "lat": 47.8182081, "lon": 13.020318}, {"type": "node", "id": 1364847071, "lat": 47.7864187, "lon": 13.0655264, "tags": {"amenity": "cafe", "name": "Fl\u00f6ckner", "wheelchair": "limited"}}, {"type": "node", "id": 1407301004, "lat": 47.7907121, "lon": 13.0747307, "tags": {"addr:city": "Salzburg", "addr:housenumber": "53", "addr:postcode": "5026", "addr:street": "Aignerstra\u00dfe", "amenity": "cafe", "name": "Gugelhupf", "opening_hours": "Mo-Fr 08:00-19:00", "payment:cash": "yes", "phone": "+43 662 84 43 95", "website": "http://www.cafeguglhupf.at/"}}, {"type": "node", "id": 1437463878, "lat": 47.7619457, "lon": 13.0604901}, {"type": "node", "id": 1437463885, "lat": 47.7619641, "lon": 13.0606636}, {"type": "node", "id": 1437463887, "lat": 47.7619644, "lon": 13.0607582}, {"type": "node", "id": 1437463891, "lat": 47.7619676, "lon": 13.0607265}, {"type": "node", "id": 1437463892, "lat": 47.7619707, "lon": 13.060789}, {"type": "node", "id": 1437463893, "lat": 47.7619799, "lon": 13.0607176}, {"type": "node", "id": 1437463897, "lat": 47.7619828, "lon": 13.0608152}, {"type": "node", "id": 1437463905, "lat": 47.7619926, "lon": 13.0606436}, {"type": "node", "id": 1437463906, "lat": 47.7619991, "lon": 13.0608292}, {"type": "node", "id": 1437463907, "lat": 47.7620059, "lon": 13.0608457}, {"type": "node", "id": 1437463910, "lat": 47.7620105, "lon": 13.0608206}, {"type": "node", "id": 1437463911, "lat": 47.762016, "lon": 13.0608394}, {"type": "node", "id": 1437463923, "lat": 47.7621065, "lon": 13.0611562}, {"type": "node", "id": 1437463927, "lat": 47.7621598, "lon": 13.0609322}, {"type": "node", "id": 1437463929, "lat": 47.7621783, "lon": 13.0609207}, {"type": "node", "id": 1437463937, "lat": 47.7621942, "lon": 13.0609712}, {"type": "node", "id": 1437463938, "lat": 47.7622014, "lon": 13.0610742}, {"type": "node", "id": 1437463939, "lat": 47.7622121, "lon": 13.0610161}, {"type": "node", "id": 1437463940, "lat": 47.7622221, "lon": 13.0610586}, {"type": "node", "id": 1437463943, "lat": 47.7622268, "lon": 13.0610393}, {"type": "node", "id": 1605479690, "lat": 47.8249488, "lon": 13.0450489, "tags": {"addr:housenumber": "10", "addr:postcode": "5020", "addr:street": "Reimsstra\u00dfe", "amenity": "cafe", "name": "La Familia", "opening_hours": "Mo-Fr 09:00-21:00; Sa 09:00-20:00"}}, {"type": "node", "id": 1634089967, "lat": 47.8043916, "lon": 13.0488784, "tags": {"addr:city": "Salzburg", "addr:country": "AT", "addr:housenumber": "72a", "addr:postcode": "5020", "addr:street": "Linzer Gasse", "amenity": "cafe", "check_date": "2023-03-13", "check_date:opening_hours": "2024-05-31", "contact:phone": "+43 662 87791911", "name": "Bistro Le Coq en Pate", "opening_hours": "Mo-Su 11:00-21:30"}}, {"type": "node", "id": 1650949386, "lat": 47.7989786, "lon": 13.049474, "tags": {"addr:city": "Salzburg", "addr:country": "AT", "addr:housenumber": "38", "addr:postcode": "5020", "addr:street": "Rudolfskai", "amenity": "cafe", "contact:email": "post@kaffee-alchemie.at", "contact:facebook": "https://www.facebook.com/KaffeeAlchemie", "contact:mobile": "+43 681 2017 3143", "cuisine": "coffee_shop", "indoor_seating": "yes", "int_name": "Coffee-Alchemy", "internet_access": "wlan", "internet_access:fee": "no", "name": "Kaffee Alchemie", "opening_hours": "Mo-Fr 07:30-18:00; Sa 09:00-18:00; Su,PH off", "outdoor_seating": "yes", "wheelchair": "no"}}, {"type": "node", "id": 1678153193, "lat": 47.7992203, "lon": 13.0448825, "tags": {"addr:city": "Salzburg", "addr:country": "AT", "addr:housenumber": "9", "addr:postcode": "5020", "addr:street": "Alter Markt", "amenity": "cafe", "check_date:opening_hours": "2022-09-30", "indoor_seating": "yes", "name": "Caf\u00e9 Tomaselli", "name:ru": "\u041a\u0430\u0444\u0435 \u0422\u043e\u043c\u0430\u0441\u0435\u043b\u043b\u0438", "opening_hours": "Mo-Sa 07:00-19:00; Su 08:00-19:00", "outdoor_seating": "yes", "phone": "+43 (0) 662 - 84 44 88-0", "website": "https://tomaselli.at/", "wheelchair": "no", "wikidata": "Q980334", "wikipedia": "de:Caf\u00e9 Tomaselli"}}, {"type": "node", "id": 1681515718, "lat": 47.801571, "lon": 13.0677186, "tags": {"addr:housenumber": "1A", "addr:postcode": "5020", "addr:street": "Fadingerstra\u00dfe", "amenity": "cafe", "cuisine": "cake", "name": "B\u00e4ckerei und Konditorei Fl\u00f6ckner", "opening_hours": "Mo-Fr 06:30-18:00; Sa 06:30-12:30", "shop": "bakery", "website": "http://www.floeckner.at/"}}, {"type": "node", "id": 1691680861, "lat": 47.8021374, "lon": 13.0448107, "tags": {"addr:city": "Salzburg", "addr:housename": "Caf\u00e9 Central", "addr:housenumber": "3", "addr:postcode": "5020", "addr:street": "Dreifaltigkeitsgasse", "amenity": "cafe", "name": "Caf\u00e9 Central", "website": "www.central-salzburg.at", "wheelchair": "yes"}}, {"type": "node", "id": 1748379652, "lat": 47.8112327, "lon": 13.0295321, "tags": {"addr:city": "Salzburg", "addr:country": "AT", "addr:housenumber": "23", "addr:postcode": "5020", "addr:street": "Roseggerstra\u00dfe", "amenity": "cafe", "check_date:opening_hours": "2024-08-14", "indoor_seating": "yes", "name": "Shamata Caf\u00e9", "opening_hours": "Mo-Su 09:00-24:00", "outdoor_seating": "no"}}, {"type": "node", "id": 1793672362, "lat": 47.7936593, "lon": 13.0078875, "tags": {"amenity": "cafe", "name": "Carpe Diem Lounge", "website": "https://www.hangar-7.com/de/day-night/carpe-diem-lounge-cafe/", "wheelchair": "yes"}}, {"type": "node", "id": 1836868056, "lat": 47.7997588, "lon": 13.043797, "tags": {"addr:city": "Salzburg", "addr:country": "AT", "addr:housenumber": "15", "addr:postcode": "5020", "addr:street": "Universit\u00e4tsplatz", "amenity": "cafe", "email": "info@cafeno5-salzburg.at", "name": "Cafe No. 5", "opening_hours": "Mo-Sa 09:00-17:00; Su 10:00-17:00; We,Th off", "outdoor_seating": "yes", "phone": "+43 660 52 57 670", "website": "https://www.cafeno5-salzburg.at"}}, {"type": "node", "id": 1942706060, "lat": 47.7999317, "lon": 13.0418015, "tags": {"amenity": "cafe", "check_date": "2023-08-10", "check_date:opening_hours": "2024-04-24", "cuisine": "ice_cream", "indoor_seating": "yes", "name": "Caf\u00e9 Getreidegasse", "opening_hours:signed": "no", "outdoor_seating": "no", "wheelchair": "no"}}, {"type": "node", "id": 1966581903, "lat": 47.8127454, "lon": 13.044888, "tags": {"addr:city": "Salzburg", "addr:country": "AT", "addr:housenumber": "1", "addr:postcode": "5020", "addr:street": "S\u00fcdtiroler Platz", "alt_name": "Wiener Caf\u00e9 Restaurant Johann", "amenity": "cafe", "check_date:opening_hours": "2024-05-27", "diet:vegetarian": "yes", "indoor_seating": "yes", "level": "0", "name": "Johann", "opening_hours": "Mo-Su 07:30-22:30", "outdoor_seating": "no", "phone": "+43 (0)662/8723 77", "wheelchair": "yes"}}, {"type": "node", "id": 2091079786, "lat": 47.7977151, "lon": 13.0320119, "tags": {"addr:city": "Salzburg", "addr:country": "AT", "addr:housenumber": "32C", "addr:postcode": "5020", "addr:street": "Neutorstra\u00dfe", "amenity": "cafe", "check_date": "2023-07-04", "indoor_seating": "yes", "name": "Rainberg", "opening_hours": "We-Sa 08:00-17:00; Su,PH 09:00-17:00", "outdoor_seating": "no", "website": "http://www.konditorei-rainberg.at/", "wheelchair": "yes"}}, {"type": "node", "id": 2140135841, "lat": 47.8140867, "lon": 13.017441, "tags": {"amenity": "cafe", "name": "Cantina", "wheelchair": "yes"}}, {"type": "node", "id": 2222963672, "lat": 47.7998889, "lon": 13.0538125, "tags": {"addr:city": "Salzburg", "addr:country": "AT", "addr:housenumber": "45", "addr:postcode": "5020", "addr:street": "Imbergstra\u00dfe", "amenity": "cafe", "cuisine": "austrian", "name": "Die P\u00e2tissi\u00e8re", "opening_hours": "Tu-Fr 09:00-18:00; Sa 09:00-17:00", "phone": "+4366452222935", "website": "http://www.die-patissiere.at"}}, {"type": "node", "id": 2261987891, "lat": 47.7978606, "lon": 13.0495427, "tags": {"addr:city": "Salzburg", "addr:country": "AT", "addr:housenumber": "5", "addr:postcode": "5020", "addr:street": "Chiemseegasse", "amenity": "cafe", "at_bev:addr_date": "2020-10-01", "contact:website": "kaffeehaus-salzburg.at", "email": "kaffeehaus@hotel-melanie.at", "internet_access": "wlan", "name": "Das Kaffeehaus", "opening_hours": "Mo-Su 09:00-18:00", "outdoor_seating": "yes", "phone": "+43 660 159 76 69", "website": "https://kaffeehaus-salzburg.at/"}}, {"type": "node", "id": 2280811085, "lat": 47.8051901, "lon": 13.0477305, "tags": {"addr:city": "Salzburg", "addr:housenumber": "15", "addr:postcode": "5020", "addr:street": "Wolf-Dietrich-Stra\u00dfe", "amenity": "cafe", "cuisine": "coffee_shop", "diet:vegan": "yes", "diet:vegetarian": "yes", "indoor_seating": "yes", "name": "R\u00f6stzimmer 15", "opening_hours": "Mo-Fr 09:15-16:00", "outdoor_seating": "no", "wheelchair": "no"}}, {"type": "node", "id": 2316914795, "lat": 47.8071742, "lon": 13.0428601, "tags": {"addr:city": "Salzburg", "addr:country": "AT", "addr:housenumber": "3", "addr:postcode": "5020", "addr:street": "Franz-Josef-Stra\u00dfe", "amenity": "cafe", "check_date": "2024-04-21", "cuisine": "sandwich;salad", "diet:vegan": "yes", "diet:vegetarian": "only", "drive_through": "no", "email": "info@heartofjoy.at", "highchair": "yes", "indoor_seating": "yes", "internet_access": "wlan", "name": "The Heart of Joy Cafe", "opening_hours": "Mo-Th 08:00-19:00; Fr-Su 08:00-20:30", "outdoor_seating": "yes", "payment:cash": "yes", "payment:credit_cards": "yes", "payment:debit_cards": "yes", "phone": "+43662890773", "source": "survey", "takeaway": "yes", "website": "https://www.heartofjoy.at/", "wheelchair": "no"}}, {"type": "node", "id": 2367327480, "lat": 47.7986175, "lon": 13.0475043, "tags": {"addr:city": "Salzburg", "addr:country": "AT", "addr:housenumber": "1", "addr:postcode": "5020", "addr:street": "Mozartplatz", "amenity": "cafe", "check_date": "2025-01-07", "check_date:opening_hours": "2025-01-07", "indoor_seating": "yes", "name": "MUS.Caf\u00e8 Museum", "opening_hours": "Mo-We 08:30-19:00; Th-Su 08:30-21:00", "outdoor_seating": "yes", "website": "https://www.cafemus.at/", "wheelchair": "yes"}}, {"type": "node", "id": 2371319517, "lat": 47.7943004, "lon": 13.0564266, "tags": {"amenity": "cafe", "name": "Wolferls Restaurant & Lounge", "outdoor_seating": "yes"}}, {"type": "node", "id": 2377437237, "lat": 47.8003649, "lon": 13.0434256, "tags": {"addr:city": "Salzburg", "addr:country": "AT", "addr:housenumber": "1", "addr:postcode": "5020", "addr:street": "Hagenauerplatz", "amenity": "cafe", "brand": "Starbucks", "brand:wikidata": "Q37158", "brand:wikipedia": "en:Starbucks", "cuisine": "coffee_shop", "indoor_seating": "yes", "name": "Starbucks", "name:ru": "\u0421\u0442\u0430\u0440\u0431\u0430\u0441\u043a-\u043a\u0430\u0444\u0435", "official_name": "Starbucks Coffee", "opening_hours": "Mo-Su,PH 08:00-20:30", "outdoor_seating": "yes", "takeaway": "yes", "toilets:wheelchair": "no", "wheelchair": "limited"}}, {"type": "node", "id": 2377499301, "lat": 47.7997617, "lon": 13.0425371}, {"type": "node", "id": 2377499306, "lat": 47.799709, "lon": 13.0424948}, {"type": "node", "id": 2463216022, "lat": 47.7984985, "lon": 13.0491159, "tags": {"addr:city": "Salzburg", "addr:country": "AT", "addr:housenumber": "3", "addr:postcode": "5020", "addr:street": "Pfeifergasse", "amenity": "cafe", "cuisine": "regional", "name": "Fasties", "opening_hours": "Mo-Fr 09:00-20:00;Sa 09:00-17:00", "wheelchair": "limited"}}, {"type": "node", "id": 2463216023, "lat": 47.7978238, "lon": 13.0491044, "tags": {"addr:city": "Salzburg", "addr:country": "AT", "addr:housenumber": "1", "addr:postcode": "5020", "addr:street": "Chiemseegasse", "amenity": "cafe", "cuisine": "ice_cream", "diet:vegan": "yes", "name": "Icezeit", "takeaway": "yes", "website": "https://www.icezeit.at/"}}, {"type": "node", "id": 2522245261, "lat": 47.8016608, "lon": 13.0392889, "tags": {"amenity": "cafe", "indoor_seating": "yes", "name": "Stadt-Caf\u00e8", "opening_hours": "Sa-We 08:30-17:00", "outdoor_seating": "yes", "toilets:wheelchair": "yes", "wheelchair": "yes"}}, {"type": "node", "id": 2526836550, "lat": 47.8154686, "lon": 13.0324603, "tags": {"addr:city": "Salzburg", "addr:housenumber": "27", "addr:postcode": "5020", "addr:street": "Franz-Martin-Stra\u00dfe", "amenity": "cafe", "indoor_seating": "yes", "name": "Oldtimer", "outdoor_seating": "yes"}}, {"type": "node", "id": 2526886675, "lat": 47.7984174, "lon": 13.0440864, "tags": {"addr:city": "Salzburg", "addr:country": "AT", "addr:housenumber": "11", "addr:postcode": "5020", "addr:street": "Sigmund-Haffner-Gasse", "amenity": "cafe", "name": "M-Cafe imToskanatrakt", "source": "http://www.mensen.at/", "website": "http://www.mensen.at/"}}, {"type": "node", "id": 2612621870, "lat": 47.7997099, "lon": 13.0425419}, {"type": "node", "id": 2677658680, "lat": 47.8059933, "lon": 13.0328494, "tags": {"amenity": "cafe", "indoor_seating": "yes", "name": "Caf\u00e8 Melanie", "opening_hours": "Mo-Fr 09:00-18:00", "operator": "Melanie Daxberger GmbH Co.KG", "outdoor_seating": "yes", "smoking": "no"}}, {"type": "node", "id": 2821322653, "lat": 47.806831, "lon": 13.0580298, "tags": {"addr:city": "Salzburg", "addr:country": "AT", "addr:housenumber": "44", "addr:postcode": "5020", "addr:street": "Schallmooser Hauptstra\u00dfe", "amenity": "cafe", "contact:instagram": "https://www.instagram.com/idealist_coffee/", "name": "Idealist Coffeeshop", "old_name": "Das Memberg", "opening_hours": "We-Fr 09:00-18:00; Sa-Mo 09:00-17:00"}}, {"type": "node", "id": 2909144004, "lat": 47.813725, "lon": 13.0449037, "tags": {"addr:city": "Salzburg", "addr:housenumber": "13", "addr:postcode": "5020", "addr:street": "S\u00fcdtiroler Platz", "amenity": "cafe", "brand": "Starbucks", "brand:wikidata": "Q37158", "brand:wikipedia": "en:Starbucks", "cuisine": "coffee_shop", "diet:vegan": "yes", "diet:vegetarian": "yes", "indoor_seating": "yes", "internet_access": "wlan", "level": "0", "name": "Starbucks", "official_name": "Starbucks Coffee", "opening_hours": "Mo-Fr 06:30-20:30; Sa 07:00-21:00; Su 08:00-20:00", "outdoor_seating": "yes", "smoking": "outside", "takeaway": "yes", "wheelchair": "yes"}}, {"type": "node", "id": 2946243938, "lat": 47.8201159, "lon": 13.0444553, "tags": {"addr:city": "Salzburg", "addr:country": "AT", "addr:housenumber": "14", "addr:postcode": "5020", "addr:street": "Itzlinger Hauptstra\u00dfe", "amenity": "cafe", "check_date:opening_hours": "2022-03-05", "cuisine": "coffee_shop", "mobile": "+43 681 845 160 49", "name": "Elixhausener Landb\u00e4ckerei", "opening_hours": "Mo-Fr 06:00-18:00, Sa 06:30-12:00", "website": "https://www.elixhausener-landbaeckerei.at/", "wheelchair": "yes"}}, {"type": "node", "id": 3034125069, "lat": 47.798325, "lon": 13.0600436, "tags": {"addr:city": "Salzburg", "addr:country": "AT", "addr:housenumber": "2", "addr:postcode": "5020", "addr:street": "Hermann-Bahr-Promenade", "amenity": "cafe", "at_bev:addr_date": "2024-10-01", "contact:email": "office@twoseasons.at", "contact:phone": "+43 662 621006", "contact:website": "https://www.twoseasons.at/", "indoor_seating": "yes", "name": "Two Seasons", "opening_hours": "Mo-Fr 16:00-22:00; Sa,Su 11:00-22:00", "outdoor_seating": "no"}}, {"type": "node", "id": 3209371128, "lat": 47.8143411, "lon": 13.0448957, "tags": {"addr:city": "Salzburg", "addr:housenumber": "13", "addr:postcode": "5020", "addr:street": "S\u00fcdtiroler Platz", "amenity": "cafe", "brand": "Coffee Fellows", "brand:wikidata": "Q23461429", "brand:wikipedia": "en:Coffee Fellows", "cuisine": "coffee_shop", "indoor_seating": "yes", "internet_access": "yes", "level": "1", "name": "Coffee Fellows", "opening_hours": "Mo-Fr 09:00-19:00; Sa 09:00-18:00; Su off", "operator": "Coffee Fellows GmbH", "outdoor_seating": "no", "phone": "+43 662 450837", "smoking": "no", "takeaway": "yes", "website": "http://www.coffee-fellows.de/", "wheelchair": "yes"}}, {"type": "node", "id": 3624045141, "lat": 47.79908, "lon": 13.0436371, "tags": {"addr:housenumber": "1", "addr:postcode": "5020", "addr:street": "Wiener-Philharmoniker-Gasse", "amenity": "cafe", "cuisine": "austrian", "name": "Herr Leopold", "opening_hours": "Sa-Su 08:00-20:00; Mo-Fr 07:30-20:00", "operator": "Justus Holzmann Soraya K\u00fchlwein", "phone": "+43662840510", "website": "http://www.herr-leopold.com"}}, {"type": "node", "id": 3638700486, "lat": 47.7996473, "lon": 13.043899, "tags": {"addr:city": "Salzburg", "addr:country": "AT", "addr:housenumber": "3", "addr:postcode": "5020", "addr:street": "Getreidegasse", "amenity": "cafe", "cuisine": "coffee", "indoor_seating": "yes", "name": "Schatz-Konditorei", "opening_hours": "Mo-Fr 09:00-18:30; Sa 8:00-17:00", "outdoor_seating": "yes", "website": "https://schatz-konditorei.at/", "wikidata": "Q1692261", "wikipedia": "de:Schatz-Konditorei"}}, {"type": "node", "id": 3872645952, "lat": 47.7740245, "lon": 13.0417966, "tags": {"addr:city": "Salzburg", "addr:country": "AT", "addr:housenumber": "5", "addr:postcode": "5020", "addr:street": "Georg-Rendl-Stra\u00dfe", "amenity": "cafe", "name": "s'5er", "phone": "+43 (0)650 8911878", "website": "https://www.s5er.at/"}}, {"type": "node", "id": 4018232910, "lat": 47.8245706, "lon": 13.0509664, "tags": {"addr:city": "Salzburg", "addr:country": "AT", "addr:housenumber": "55", "addr:postcode": "5020", "addr:street": "Kirchenstra\u00dfe", "amenity": "cafe", "at_bev:addr_date": "2018-10-01", "cuisine": "bistro", "name": "Caf\u00e9 my way", "opening_hours": "Su-Fr,PH 09:00-22:00", "outdoor_seating": "yes", "wheelchair": "yes"}}, {"type": "node", "id": 4114250186, "lat": 47.8133132, "lon": 13.0273611, "tags": {"addr:city": "Salzburg", "addr:country": "AT", "addr:housenumber": "14", "addr:postcode": "5020", "addr:street": "Schumacherstra\u00dfe", "amenity": "cafe", "contact:email": "kowalski.panoramabar@diakoniewerk.at", "contact:facebook": "https://www.facebook.com/PanoramabarSalzburg", "contact:phone": "+43 664 45 64 350", "contact:website": "https://www.cafe-kowalski.at/standorte-speisekarten/lehenpanoramabar", "cuisine": "coffee_shop", "diet:vegan": "no", "diet:vegetarian": "yes", "indoor_seating": "yes", "internet_access": "wlan", "name": "Panoramabar", "opening_hours": "Mo 10:00-18:00; Tu-We 15:00-19:00; Th-Fr 10:00-18:00; Sa 10:00-15:00; Su off", "operator": "Evangelisches Diakoniewerk Gallneukirchen", "operator:wikidata": "Q1304849", "operator:wikipedia": "de:Evangelisches Diakoniewerk Gallneukirchen", "outdoor_seating": "no", "takeaway": "yes", "website:menu": "https://www.cafe-kowalski.at/sites/default/files/kowalski_panoramabar_speisekarte_web.pdf", "wheelchair": "yes"}}, {"type": "node", "id": 4374588389, "lat": 47.7956824, "lon": 13.0606092, "tags": {"addr:city": "Salzburg", "addr:country": "AT", "addr:housenumber": "3", "addr:postcode": "5020", "addr:street": "Ignaz-Rieder-Kai", "amenity": "cafe", "at_bev:addr_date": "2024-04-01", "contact:mobile": "+43 664 4569729", "contact:website": "https://www.cultim.at/", "indoor_seating": "yes", "name": "Cult im Volksgarten", "opening_hours": "Mo-Fr 10:00-23:00", "outdoor_seating": "yes"}}, {"type": "node", "id": 4442549192, "lat": 47.8042677, "lon": 13.0467221, "tags": {"addr:housenumber": "39", "addr:street": "Linzer Gasse", "amenity": "cafe", "diet:vegan": "yes", "diet:vegetarian": "yes", "internet_access": "wlan", "internet_access:fee": "customers", "level": "0", "name": "Coffeehouse", "opening_hours": "Mo-Sa 08:30-21:00", "toilets": "yes", "wheelchair": "yes"}}, {"type": "node", "id": 4511206795, "lat": 47.8065484, "lon": 13.0466917, "tags": {"addr:city": "Salzburg", "addr:housenumber": "33", "addr:postcode": "5020", "addr:street": "Wolf-Dietrich-Stra\u00dfe", "amenity": "cafe", "check_date:opening_hours": "2024-03-12", "diet:vegan": "only", "diet:vegetarian": "yes", "email": "office@gusta-v.at", "indoor_seating": "yes", "internet_access": "no", "name": "GustaV", "opening_hours": "Th,Fr 11:00-20:00; Sa 10:00-18:00", "outdoor_seating": "yes", "phone": "+43 688 9833606", "takeaway": "yes", "website": "https://www.gusta-v.at/", "wheelchair": "no"}}, {"type": "node", "id": 4566329390, "lat": 47.8051329, "lon": 13.0367777, "tags": {"addr:housenumber": "4", "addr:postcode": "5020", "addr:street": "M\u00fcllner Hauptstra\u00dfe", "amenity": "cafe", "diet:vegetarian": "yes", "email": "info@cafeamkai.eu", "indoor_seating": "yes", "name": "Caf\u00e9 am Kai", "opening_hours": "PH,We-Mo 08:30-21:00", "operator": "Daniela Putz", "outdoor_seating": "yes", "phone": "+43 664 1707899", "website": "https://cafeamkai.eu", "wheelchair": "no"}}, {"type": "node", "id": 4755892735, "lat": 47.8026947, "lon": 13.0456479, "tags": {"amenity": "cafe", "cuisine": "ice_cream", "diet:vegan": "yes", "name": "Timeless", "wheelchair": "no"}}, {"type": "node", "id": 4830900687, "lat": 47.8023414, "lon": 13.0430538, "tags": {"addr:city": "Salzburg", "addr:country": "AT", "addr:housenumber": "5-7", "addr:postcode": "5020", "addr:street": "Schwarzstra\u00dfe", "amenity": "cafe", "name": "Caf\u00e9 Sacher", "opening_hours": "Mo-Su 09:00-18:00", "source": "visit", "wheelchair": "no"}}, {"type": "node", "id": 5150138026, "lat": 47.7989725, "lon": 13.0471263, "tags": {"amenity": "cafe", "check_date:opening_hours": "2024-05-30", "diet:vegetarian": "yes", "indoor_seating": "yes", "name": "Caf\u00e9 Glockenspiel", "opening_hours": "We-Su 10:00-18:00", "outdoor_seating": "yes", "wheelchair": "yes"}}, {"type": "node", "id": 5158397611, "lat": 47.8162444, "lon": 13.0078197, "tags": {"addr:city": "Salzburg", "addr:housenumber": "1", "addr:postcode": "5020", "addr:street": "Europastra\u00dfe", "amenity": "cafe", "cuisine": "breakfast;bread;coffee", "email": "office@didimaier.com", "level": "0", "name": "The Bakery by Didi Meier", "opening_hours": "Mo-Th 09:00-19:30, Fr 09:00-21:00, Sa 09:00-18:00", "phone": "+43 662 265657", "website": "https://didimaier.at/bakery/"}}, {"type": "node", "id": 5207276088, "lat": 47.8063222, "lon": 13.0492837, "tags": {"addr:housenumber": "19", "addr:street": "Paris-Lodron-Stra\u00dfe", "amenity": "cafe", "name": "Kuchenfee", "opening_hours": "Mo-Sa 10:00-18:00", "organic": "limited"}}, {"type": "node", "id": 5324779746, "lat": 47.8116715, "lon": 13.0270857, "tags": {"amenity": "cafe", "indoor_seating": "yes", "name": "Steirer Cafe", "opening_hours": "Mo-Sa 10:30-24:00, Su,PH 11:00-24:00; We off", "outdoor_seating": "yes"}}, {"type": "node", "id": 5332145010, "lat": 47.815034, "lon": 13.0080439, "tags": {"amenity": "cafe", "cuisine": "ice_cream", "level": "1", "name": "Il Gelato"}}, {"type": "node", "id": 5332145357, "lat": 47.815632, "lon": 13.0069636, "tags": {"amenity": "cafe", "level": "1", "name": "Cafe Capuccino"}}, {"type": "node", "id": 5332145380, "lat": 47.8159315, "lon": 13.0080593, "tags": {"amenity": "cafe", "brand": "Starbucks", "brand:wikidata": "Q37158", "brand:wikipedia": "en:Starbucks", "cuisine": "coffee_shop", "level": "0", "name": "Starbucks", "official_name": "Starbucks Coffee", "takeaway": "yes"}}, {"type": "node", "id": 5345095701, "lat": 47.8104608, "lon": 13.0420332, "tags": {"amenity": "cafe", "level": "-1", "name": "Testa Rossa"}}, {"type": "node", "id": 5359028489, "lat": 47.8123823, "lon": 13.0333356, "tags": {"addr:city": "Salzburg", "addr:housenumber": "16", "addr:postcode": "5020", "addr:street": "Siebenst\u00e4dterstra\u00dfe", "amenity": "cafe", "indoor_seating": "yes", "name": "Caff\u00e8 MuCo & Bistro", "opening_hours": "Mo-Fr 10:00-14:00,16:30-21:00; Sa,Su off", "outdoor_seating": "no", "phone": "+436605736382"}}, {"type": "node", "id": 5373284592, "lat": 47.7961902, "lon": 13.0262874, "tags": {"amenity": "cafe", "indoor_seating": "yes", "name": "Caf\u00e9 Pierre", "old_name": "Mai Raum", "outdoor_seating": "no"}}, {"type": "node", "id": 5373582297, "lat": 47.813193, "lon": 13.0452364, "tags": {"amenity": "cafe", "check_date:opening_hours": "2024-05-27", "diet:vegan": "yes", "diet:vegetarian": "yes", "indoor_seating": "yes", "name": "Natoo", "opening_hours": "Mo-Su,PH 07:00-20:00", "outdoor_seating": "no", "wheelchair": "yes"}}, {"type": "node", "id": 5381629147, "lat": 47.8071326, "lon": 13.0426848, "tags": {"amenity": "cafe", "cuisine": "ice_cream;waffle;crepe", "indoor_seating": "yes", "name": "Tiziana", "opening_hours": "PH,We-Mo 09:00-21:00", "outdoor_seating": "yes", "wheelchair": "no"}}, {"type": "node", "id": 5381793436, "lat": 47.8155744, "lon": 13.053966, "tags": {"amenity": "cafe", "brand": "Lavazza", "brand:wikidata": "Q543750", "cuisine": "coffee_shop", "name": "Lavazza", "takeaway": "yes"}}, {"type": "node", "id": 5434074261, "lat": 47.8083367, "lon": 13.0411545, "tags": {"amenity": "cafe", "brewery": "Zipfer", "brewery:Pils": "Reininghaus", "brewery:Wei\u00dfbier": "Edelweiss", "indoor_seating": "yes", "name": "Cup&Cino", "opening_hours": "Mo-Sa 08:00-18:00", "outdoor_seating": "yes", "wheelchair": "yes"}}, {"type": "node", "id": 5434309258, "lat": 47.7998873, "lon": 13.0401651, "tags": {"amenity": "cafe", "check_date:opening_hours": "2024-04-12", "indoor_seating": "no", "name": "nur coffee", "opening_hours:signed": "no", "outdoor_seating": "no", "payment:cash": "no", "takeaway": "only", "wheelchair": "yes"}}, {"type": "node", "id": 5554512624, "lat": 47.7862711, "lon": 13.0655696, "tags": {"amenity": "cafe", "level": "0", "name": "Ricky's"}}, {"type": "node", "id": 5589310751, "lat": 47.8107421, "lon": 13.0386816, "tags": {"amenity": "cafe", "name": "Caf\u00e9 19"}}, {"type": "node", "id": 5589310752, "lat": 47.8105522, "lon": 13.038664, "tags": {"amenity": "cafe", "diet:vegetarian": "yes", "indoor_seating": "yes", "name": "Cafe Victory", "opening_hours": "PH,Mo-Su 08:00-22:00", "outdoor_seating": "yes"}}, {"type": "node", "id": 5740488878, "lat": 47.7994116, "lon": 13.0487203, "tags": {"amenity": "cafe", "changing_table": "no", "check_date": "2023-08-10", "cuisine": "coffee_shop", "name": "We Love Coffee", "opening_hours": "Mo-Fr 07:30-18:00; Sa, Su 09:00-18:00", "takeaway": "only", "wheelchair": "limited"}}, {"type": "node", "id": 5740605925, "lat": 47.7966475, "lon": 13.0515267, "tags": {"amenity": "cafe", "check_date": "2023-06-27", "name": "Lindy's"}}, {"type": "node", "id": 5740606430, "lat": 47.7956311, "lon": 13.0525031, "tags": {"air_conditioning": "yes", "amenity": "cafe", "check_date": "2023-06-27", "diet:vegetarian": "yes", "indoor_seating": "yes", "name": "220Grad Nonntal", "opening_hours": "Tu-Fr 09:00-19:00; Sa 09:00-18:00", "outdoor_seating": "yes", "smoking": "outside"}}, {"type": "node", "id": 5740631821, "lat": 47.7971433, "lon": 13.0495664, "tags": {"amenity": "cafe", "name": "Secession"}}, {"type": "node", "id": 5740637327, "lat": 47.7966934, "lon": 13.0512935, "tags": {"amenity": "cafe", "noname": "yes"}}, {"type": "node", "id": 5743196921, "lat": 47.8016524, "lon": 13.0452947, "tags": {"addr:city": "Salzburg", "addr:country": "AT", "addr:housenumber": "1", "addr:postcode": "5020", "addr:street": "Steingasse", "amenity": "cafe", "at_bev:addr_date": "2023-10-01", "diet:vegetarian": "yes", "indoor_seating": "yes", "name": "Darwin", "opening_hours": "Mo-Su,PH 09:00-24:00", "outdoor_seating": "yes", "wheelchair": "yes"}}, {"type": "node", "id": 5743321322, "lat": 47.801528, "lon": 13.0453527, "tags": {"addr:housenumber": "4", "addr:street": "Steingasse", "amenity": "cafe", "description": "Organic cafe cum brunch restaurant", "name": "Rosencaf\u00e9", "opening_hours": "We-Su 09:00-17:00", "opening_hours:signed": "no", "organic": "only", "website": "https://rosen.cafe/", "wheelchair": "no"}}, {"type": "node", "id": 6290445997, "lat": 47.7814782, "lon": 13.0680175, "tags": {"amenity": "cafe", "branch": "Bio Supermarkt", "brand": "basic", "brand:wikidata": "Q809994", "brand:wikipedia": "de:Basic AG", "cuisine": "bistro", "diet:vegan": "yes", "diet:vegetarian": "yes", "indoor_seating": "yes", "name": "basic Bistro", "opening_hours": "Mo-Fr 08:00-19:00; Sa 08:00-18:00", "operator": "basic AG Lebensmittelhandel", "organic": "only", "outdoor_seating": "yes", "website": "https://basicbio.de/maerkte", "wheelchair": "yes"}}, {"type": "node", "id": 6430859069, "lat": 47.8094718, "lon": 13.0457872, "tags": {"amenity": "cafe", "indoor_seating": "yes", "name": "Caf\u00e9 Bistro Thomas", "opening_hours": "Mo 09:00-20:00; We-Sa 09:00-21:00; Su 10:00-14:00", "outdoor_seating": "yes"}}, {"type": "node", "id": 6440496225, "lat": 47.8129109, "lon": 13.0433739, "tags": {"addr:postcode": "5020", "amenity": "cafe", "name": "Caf\u00e9 Figaro", "opening_hours": "Mo-Su 09:00-00:00", "outdoor_seating": "yes"}}, {"type": "node", "id": 6538745072, "lat": 47.7623234, "lon": 13.06125, "tags": {"amenity": "cafe", "check_date": "2023-08-22", "cuisine": "snacks", "name": "Parkcaf\u00e9 Schloss Hellbrun", "outdoor_seating": "yes", "source": "survey", "website": "https://www.parkcafehellbrunn.at/", "wheelchair": "yes"}}, {"type": "node", "id": 7448406115, "lat": 47.7982813, "lon": 13.0491022, "tags": {"amenity": "cafe", "cafe": "bistro", "name": "Alvera Montemio", "phone": "+43 676 7283465", "website": "https://www.alvera-montemio.at"}}, {"type": "node", "id": 7888131334, "lat": 47.8100614, "lon": 13.0416458, "tags": {"amenity": "cafe", "name": "Asanyar"}}, {"type": "node", "id": 8038360680, "lat": 47.8107132, "lon": 13.0377624, "tags": {"addr:city": "Salzburg", "addr:housenumber": "62", "addr:postcode": "5020", "addr:street": "Elisabethkai", "amenity": "cafe", "indoor_seating": "yes", "name": "Salzach", "outdoor_seating": "yes"}}, {"type": "node", "id": 8038378308, "lat": 47.8052964, "lon": 13.0476579, "tags": {"amenity": "cafe", "check_date": "2025-03-20", "check_date:opening_hours": "2025-03-20", "indoor_seating": "yes", "name": "M Passione", "opening_hours": "We-Fr 10:00-17:30; Sa,Su 10:00-16:00; Mo,Tu off", "outdoor_seating": "no", "website": "https://mpassione.com", "wheelchair": "no"}}, {"type": "node", "id": 8094096261, "lat": 47.8110961, "lon": 13.0388022, "tags": {"addr:housenumber": "7A", "addr:street": "Saint-Julien-Stra\u00dfe", "amenity": "cafe", "contact:facebook": "https://www.facebook.com/medakcrep/", "cuisine": "bistro", "name": "Medak Creperia"}}, {"type": "node", "id": 8852457148, "lat": 47.787941, "lon": 13.0771442, "tags": {"addr:city": "Salzburg", "addr:country": "AT", "addr:housenumber": "20C", "addr:postcode": "5026", "addr:street": "Guggenbichlerstra\u00dfe", "amenity": "cafe", "at_bev:addr_date": "2024-04-01", "name": "kowalsky"}}, {"type": "node", "id": 9238720893, "lat": 47.815993, "lon": 13.0231495, "tags": {"addr:city": "Salzburg", "addr:housenumber": "24a", "addr:postcode": "5020", "addr:street": "General-Keyes-Stra\u00dfe", "amenity": "cafe", "diet:halal": "no", "diet:kosher": "no", "diet:vegan": "yes", "diet:vegetarian": "yes", "indoor_seating": "yes", "name": "The Neighborhood Caf\u00e9", "opening_hours": "Tu-Fr 07:00-14:00; Sa 09:00-16:00; Su 09:00-13:00", "outdoor_seating": "yes", "wheelchair": "yes"}}, {"type": "node", "id": 9392678001, "lat": 47.8154413, "lon": 13.0074251, "tags": {"amenity": "cafe", "name": "CappuCone"}}, {"type": "node", "id": 9425725904, "lat": 47.800593, "lon": 13.0397623, "tags": {"amenity": "cafe", "indoor_seating": "yes", "name": "Coolinarik", "opening_hours": "Tu-Su 09:00-18:00", "outdoor_seating": "yes", "wheelchair": "limited"}}, {"type": "node", "id": 9841636495, "lat": 47.7941395, "lon": 13.029682, "tags": {"addr:city": "Salzburg", "addr:housenumber": "7", "addr:postcode": "5020", "addr:street": "Moosstra\u00dfe", "amenity": "cafe", "cuisine": "international;flexitarisch;coffee_shop", "email": "office@moosstrasse7.at", "indoor_seating": "yes", "internet_access": "wlan", "internet_access:fee": "no", "name": "Lebensk\u00fcche", "operator": "Lebenshilfe Salzburg", "outdoor_seating": "yes", "phone": "+43662 2341881", "takeaway": "yes", "website": "https://moosstrasse7.at/lebenskuche-cafe/"}}, {"type": "node", "id": 9926486347, "lat": 47.8035404, "lon": 13.045691, "tags": {"amenity": "cafe", "name": "Coffee Press"}}, {"type": "node", "id": 9944513496, "lat": 47.8112431, "lon": 13.033702, "tags": {"addr:city": "Salzburg", "addr:housenumber": "14", "addr:postcode": "5020", "addr:street": "Ignaz-Harrer-Stra\u00dfe", "amenity": "cafe", "indoor_seating": "yes", "name": "Das Salz", "opening_hours": "Mo-Th 07:00-11:00, Fr-Su 07:00-24:00", "outdoor_seating": "no"}}, {"type": "node", "id": 9969751618, "lat": 47.8044243, "lon": 13.0490328, "tags": {"addr:housenumber": "72a", "addr:street": "Linzer Gasse", "amenity": "cafe", "check_date": "2023-03-13", "indoor_seating": "yes", "name": "Ratio Coffee", "opening_hours": "Mo,We-Sa 08:00-18:00; Tu off; Su 09:00-15:00", "outdoor_seating": "yes", "website": "https://ratiocoffee.at/"}}, {"type": "node", "id": 11012483836, "lat": 47.7985561, "lon": 13.0645527, "tags": {"amenity": "cafe", "check_date": "2023-06-28", "name": "Ben's", "opening_hours": "Mo-Fr 08:00-18:00; Sa-Su,PH 09:00-18:00", "payment:cash": "yes", "phone": "+43 662 625378"}}, {"type": "node", "id": 11564098399, "lat": 47.8052965, "lon": 13.0479263, "tags": {"amenity": "cafe", "food": "sacher", "indoor_seating": "yes", "name": "Tortelier", "opening_hours": "Mo,Th-Sa 08:00-18:00; Tu,We off; Su 09:00-18:00", "outdoor_seating": "yes", "wheelchair": "no"}}, {"type": "node", "id": 11716155994, "lat": 47.804684, "lon": 13.0439311, "tags": {"amenity": "cafe", "check_date:opening_hours": "2024-03-13", "indoor_seating": "yes", "name": "Mirabell Coffee Bar", "opening_hours:signed": "no", "outdoor_seating": "yes", "wheelchair": "yes"}}, {"type": "node", "id": 11730702366, "lat": 47.8054826, "lon": 13.0447066, "tags": {"amenity": "cafe", "indoor_seating": "yes", "name": "Viva", "outdoor_seating": "yes"}}, {"type": "node", "id": 11768431878, "lat": 47.8008816, "lon": 13.0408457, "tags": {"addr:housenumber": "2a", "addr:street": "Griesgasse", "amenity": "cafe", "check_date": "2024-03-28", "cuisine": "cake;coffee_shop", "diet:vegetarian": "yes", "indoor_seating": "yes", "name": "KAVA Coffee Roasters", "opening_hours": "Mo-Sa 09:00-17:30", "outdoor_seating": "yes", "payment:cash": "yes", "payment:credit_cards": "yes", "payment:debit_cards": "yes", "phone": "+49 176 44200153", "website": "https://kavacoffee.de", "wheelchair": "yes"}}, {"type": "node", "id": 11811269722, "lat": 47.8210816, "lon": 13.0242548, "tags": {"amenity": "cafe", "bar": "yes", "indoor_seating": "yes", "name": "Why not", "opening_hours": "Mo-Th 11:00-23:00; Fr,Sa 11:00-24:00; Su,PH off", "outdoor_seating": "yes", "wheelchair": "limited"}}, {"type": "node", "id": 11844141825, "lat": 47.8003152, "lon": 13.0449021, "tags": {"amenity": "cafe", "cuisine": "bubble_tea", "name": "Boba and Chill", "wheelchair": "no"}}, {"type": "node", "id": 12083779066, "lat": 47.8064675, "lon": 13.0397787, "tags": {"amenity": "cafe", "indoor_seating": "yes", "name": "Parkcaf\u00e9 Mirabell", "outdoor_seating": "yes"}}, {"type": "node", "id": 12194009910, "lat": 47.7935827, "lon": 13.080012, "tags": {"amenity": "cafe", "name": "Parkcaf\u00e9", "website": "https://www.virgil.at/gastronomie/parkcafe/#go40"}}, {"type": "node", "id": 12247181724, "lat": 47.7997736, "lon": 13.0439275, "tags": {"addr:city": "Salzburg", "addr:country": "AT", "addr:housenumber": "3", "addr:postcode": "5020", "addr:street": "Getreidegasse", "amenity": "cafe", "at_bev:addr_date": "2024-04-01", "name": "Kaffeeothek", "phone": "+43724235019912", "website": "https://www.kaffeeothek.at/standorte/kaffeeothek-salzburg/"}}, {"type": "node", "id": 12454180701, "lat": 47.7966853, "lon": 13.0498305, "tags": {"addr:housenumber": "26", "addr:postcode": "5020", "addr:street": "Kaigasse", "amenity": "cafe", "contact:instagram": "mamakerscafe", "name": "MA MAKERS Caf\u00e9", "opening_hours": "We-Su 09:00-18:00", "website:menu": "https://linktr.ee/mamakerscafe"}}, {"type": "node", "id": 12459126513, "lat": 47.7902308, "lon": 13.0786344, "tags": {"addr:city": "Salzburg", "addr:housenumber": "24", "addr:postcode": "5026", "addr:street": "Traunstra\u00dfe", "amenity": "cafe", "cuisine": "coffee_shop", "name": "Kaffee Aigensinn", "opening_hours": "Mo 09:00-18:00, Tu 09:00-12:00, We 09:00-18:00, Th 09:00-18:00, Fr 10:00-18:00-Fr 12:00-18:00", "outdoor_seating": "yes", "phone": "+43 664 80 42 16 212", "website": "https://www.anderskompetent.at/cafe-aigensinn/"}}, {"type": "way", "id": 64132690, "nodes": [790627443, 790626345, 2377499301, 2612621870, 2377499306, 790627443], "tags": {"amenity": "cafe", "building": "yes", "indoor_seating": "yes", "name": "Fabrizi Espresso", "opening_hours": "Mo-Sa 07:00-19:00; Su,PH 09:00-18:00", "operator": "Schicker Michael", "outdoor_seating": "yes", "phone": "+43-662-845914", "smoking": "yes"}}, {"type": "way", "id": 104973073, "nodes": [1210297753, 1210297752, 1210297756, 1210297760, 1210297758, 1210297757, 1210297753], "tags": {"addr:city": "Salzburg", "addr:country": "AT", "addr:housenumber": "8", "addr:postcode": "5020", "addr:street": "Siebenb\u00fcrgerstra\u00dfe", "amenity": "cafe", "building": "commercial", "diet:vegetarian": "yes", "indoor_seating": "yes", "name": "7-B\u00fcrger Caf\u00e9", "opening_hours": "Tu,We,Fr,Su 08:00-18:00; Th off; Mo,Sa 08:00-12:00", "outdoor_seating": "yes", "shop": "pastry"}}, {"type": "way", "id": 130544105, "nodes": [321978329, 1437463878, 1437463905, 1437463885, 1437463893, 1437463891, 1437463887, 1437463892, 1437463897, 1437463906, 1437463910, 1437463911, 1437463907, 1437463923, 1437463938, 1437463940, 1437463943, 1437463939, 1437463937, 1437463929, 1437463927, 1110318918, 321978329], "tags": {"amenity": "cafe", "building": "yes", "check_date": "2023-08-22", "name": "Orangerie"}}]}